SL-14 R/B               
1 17567U 87024B   26107.28593377  .00000296  00000+0  30799-4 0  9995
2 17567  82.5286  56.4813 0019436 129.6914 230.6020 14.86169297 93863
COSMOS 1833             
1 17589U 87027A   26107.29926580 -.00000302  00000+0 -13573-3 0  9999
2 17589  70.9161 244.8601 0022538 155.3979 204.8223 14.13037413 15778
SL-16 R/B               
1 17590U 87027B   26107.23136023 -.00000143  00000+0 -47252-4 0  9995
2 17590  71.0032 195.2765 0003186  43.8480 316.2897 14.17168709 20807
SL-14 R/B               
1 17912U 87038B   26106.89648913  .00000272  00000+0  28662-4 0  9997
2 17912  82.4989 260.8030 0020186  41.8861 318.3895 14.85404511 84907
COSMOS 1844             
1 17973U 87041A   26107.01022881 -.00000174  00000+0 -64972-4 0  9990
2 17973  70.8997 313.3499 0032483 321.4944  38.3860 14.14564364  9003
SL-14 R/B               
1 18153U 87055B   26107.06869716  .00000252  00000+0  26283-4 0  9995
2 18153  82.4975 312.8574 0019237 245.0443 114.8774 14.85663823 75638
COSMOS 1867             
1 18187U 87060A   26107.00476435 -.00000072  00000+0  10640-4 0  9995
2 18187  65.0108 199.4014 0015211 280.6796  79.2576 14.31508750 25426
SL-14 R/B               
1 18749U 88001B   26107.13406012  .00000259  00000+0  27074-4 0  9998
2 18749  82.5138 159.2117 0019566 109.8730 250.4598 14.85565752 47731
COSMOS 1933             
1 18958U 88020A   26107.28192889  .00002337  00000+0  11232-3 0  9998
2 18958  82.5153 212.7220 0005347  74.9687 285.2139 15.18340568 56083
SL-3 R/B                
1 19046U 88032B   26107.24082099  .00003067  00000+0  14298-3 0  9993
2 19046  97.5232  90.3803 0027690  99.0701 261.3669 15.20317947 57962
SL-16 R/B               
1 19120U 88039B   26107.10052760 -.00000089  00000+0 -19131-4 0  9995
2 19120  71.0165 347.3300 0024061 279.9261  79.9148 14.19622815963830
COSMOS 1953             
1 19210U 88050A   26107.11109910  .00005393  00000+0  18950-3 0  9997
2 19210  82.5045 119.5797 0010475 359.4167   0.7059 15.29103305 43658
SL-8 R/B                
1 19257U 88053B   26107.25979619  .00000099  00000+0  40512-4 0  9995
2 19257  74.0488  41.3660 0020931 214.8976 296.1330 14.38938660982145
