[
    {
        "OBJECT_NAME": "SL-14 R/B",
        "OBJECT_ID": "1987-024B",
        "EPOCH": "2026-04-17T06:51:44.677728",
        "MEAN_MOTION": 14.86169297,
        "ECCENTRICITY": 0.0019436,
        "INCLINATION": 82.5286,
        "RA_OF_ASC_NODE": 56.4813,
        "ARG_OF_PERICENTER": 129.6914,
        "MEAN_ANOMALY": 230.602,
        "EPHEMERIS_TYPE": 0,
        "CLASSIFICATION_TYPE": "U",
        "NORAD_CAT_ID": 17567,
        "ELEMENT_SET_NO": 999,
        "REV_AT_EPOCH": 9386,
        "BSTAR": 3.0799014e-05,
        "MEAN_MOTION_DOT": 2.96e-06,
        "MEAN_MOTION_DDOT": 0
    },
    {
        "OBJECT_NAME": "COSMOS 1833",
        "OBJECT_ID": "1987-027A",
        "EPOCH": "2026-04-17T07:10:56.565120",
        "MEAN_MOTION": 14.13037413,
        "ECCENTRICITY": 0.0022538,
        "INCLINATION": 70.9161,
        "RA_OF_ASC_NODE": 244.8601,
        "ARG_OF_PERICENTER": 155.3979,
        "MEAN_ANOMALY": 204.8223,
        "EPHEMERIS_TYPE": 0,
        "CLASSIFICATION_TYPE": "U",
        "NORAD_CAT_ID": 17589,
        "ELEMENT_SET_NO": 999,
        "REV_AT_EPOCH": 1577,
        "BSTAR": -0.00013573298,
        "MEAN_MOTION_DOT": -3.02e-06,
        "MEAN_MOTION_DDOT": 0
    },
    {
        "OBJECT_NAME": "SL-16 R/B",
        "OBJECT_ID": "1987-027B",
        "EPOCH": "2026-04-17T05:33:09.523872",
        "MEAN_MOTION": 14.17168709,
        "ECCENTRICITY": 0.00031869,
        "INCLINATION": 71.0032,
        "RA_OF_ASC_NODE": 195.2765,
        "ARG_OF_PERICENTER": 43.848,
        "MEAN_ANOMALY": 316.2897,
        "EPHEMERIS_TYPE": 0,
        "CLASSIFICATION_TYPE": "U",
        "NORAD_CAT_ID": 17590,
        "ELEMENT_SET_NO": 999,
        "REV_AT_EPOCH": 2080,
        "BSTAR": -4.7252104e-05,
        "MEAN_MOTION_DOT": -1.43e-06,
        "MEAN_MOTION_DDOT": 0
    },
    {
        "OBJECT_NAME": "SL-14 R/B",
        "OBJECT_ID": "1987-038B",
        "EPOCH": "2026-04-16T21:30:56.660832",
        "MEAN_MOTION": 14.85404511,
        "ECCENTRICITY": 0.00201869,
        "INCLINATION": 82.4989,
        "RA_OF_ASC_NODE": 260.803,
        "ARG_OF_PERICENTER": 41.8861,
        "MEAN_ANOMALY": 318.3895,
        "EPHEMERIS_TYPE": 0,
        "CLASSIFICATION_TYPE": "U",
        "NORAD_CAT_ID": 17912,
        "ELEMENT_SET_NO": 999,
        "REV_AT_EPOCH": 8490,
        "BSTAR": 2.8662186e-05,
        "MEAN_MOTION_DOT": 2.72e-06,
        "MEAN_MOTION_DDOT": 0
    },
    {
        "OBJECT_NAME": "COSMOS 1844",
        "OBJECT_ID": "1987-041A",
        "EPOCH": "2026-04-17T00:14:43.769184",
        "MEAN_MOTION": 14.14564364,
        "ECCENTRICITY": 0.00324837,
        "INCLINATION": 70.8997,
        "RA_OF_ASC_NODE": 313.3499,
        "ARG_OF_PERICENTER": 321.4944,
        "MEAN_ANOMALY": 38.386,
        "EPHEMERIS_TYPE": 0,
        "CLASSIFICATION_TYPE": "U",
        "NORAD_CAT_ID": 17973,
        "ELEMENT_SET_NO": 999,
        "REV_AT_EPOCH": 900,
        "BSTAR": -6.4971921e-05,
        "MEAN_MOTION_DOT": -1.74e-06,
        "MEAN_MOTION_DDOT": 0
    },
    {
        "OBJECT_NAME": "SL-14 R/B",
        "OBJECT_ID": "1987-055B",
        "EPOCH": "2026-04-17T01:38:55.434624",
        "MEAN_MOTION": 14.85663823,
        "ECCENTRICITY": 0.00192379,
        "INCLINATION": 82.4975,
        "RA_OF_ASC_NODE": 312.8574,
        "ARG_OF_PERICENTER": 245.0443,
        "MEAN_ANOMALY": 114.8774,
        "EPHEMERIS_TYPE": 0,
        "CLASSIFICATION_TYPE": "U",
        "NORAD_CAT_ID": 18153,
        "ELEMENT_SET_NO": 999,
        "REV_AT_EPOCH": 7563,
        "BSTAR": 2.6282896e-05,
        "MEAN_MOTION_DOT": 2.52e-06,
        "MEAN_MOTION_DDOT": 0
    },
    {
        "OBJECT_NAME": "COSMOS 1867",
        "OBJECT_ID": "1987-060A",
        "EPOCH": "2026-04-17T00:06:51.639840",
        "MEAN_MOTION": 14.3150875,
        "ECCENTRICITY": 0.00152115,
        "INCLINATION": 65.0108,
        "RA_OF_ASC_NODE": 199.4014,
        "ARG_OF_PERICENTER": 280.6796,
        "MEAN_ANOMALY": 79.2576,
        "EPHEMERIS_TYPE": 0,
        "CLASSIFICATION_TYPE": "U",
        "NORAD_CAT_ID": 18187,
        "ELEMENT_SET_NO": 999,
        "REV_AT_EPOCH": 2542,
        "BSTAR": 1.0640143e-05,
        "MEAN_MOTION_DOT": -7.2e-07,
        "MEAN_MOTION_DDOT": 0
    },
    {
        "OBJECT_NAME": "SL-14 R/B",
        "OBJECT_ID": "1988-001B",
        "EPOCH": "2026-04-17T03:13:02.794368",
        "MEAN_MOTION": 14.85565752,
        "ECCENTRICITY": 0.00195664,
        "INCLINATION": 82.5138,
        "RA_OF_ASC_NODE": 159.2117,
        "ARG_OF_PERICENTER": 109.873,
        "MEAN_ANOMALY": 250.4598,
        "EPHEMERIS_TYPE": 0,
        "CLASSIFICATION_TYPE": "U",
        "NORAD_CAT_ID": 18749,
        "ELEMENT_SET_NO": 999,
        "REV_AT_EPOCH": 4773,
        "BSTAR": 2.7073673e-05,
        "MEAN_MOTION_DOT": 2.59e-06,
        "MEAN_MOTION_DDOT": 0
    },
    {
        "OBJECT_NAME": "COSMOS 1933",
        "OBJECT_ID": "1988-020A",
        "EPOCH": "2026-04-17T06:45:58.656096",
        "MEAN_MOTION": 15.18340568,
        "ECCENTRICITY": 0.00053478,
        "INCLINATION": 82.5153,
        "RA_OF_ASC_NODE": 212.722,
        "ARG_OF_PERICENTER": 74.9687,
        "MEAN_ANOMALY": 285.2139,
        "EPHEMERIS_TYPE": 0,
        "CLASSIFICATION_TYPE": "U",
        "NORAD_CAT_ID": 18958,
        "ELEMENT_SET_NO": 999,
        "REV_AT_EPOCH": 5608,
        "BSTAR": 0.00011231558,
        "MEAN_MOTION_DOT": 2.337e-05,
        "MEAN_MOTION_DDOT": 0
    },
    {
        "OBJECT_NAME": "SL-3 R/B",
        "OBJECT_ID": "1988-032B",
        "EPOCH": "2026-04-17T05:46:46.933536",
        "MEAN_MOTION": 15.20317947,
        "ECCENTRICITY": 0.002769,
        "INCLINATION": 97.5232,
        "RA_OF_ASC_NODE": 90.3803,
        "ARG_OF_PERICENTER": 99.0701,
        "MEAN_ANOMALY": 261.3669,
        "EPHEMERIS_TYPE": 0,
        "CLASSIFICATION_TYPE": "U",
        "NORAD_CAT_ID": 19046,
        "ELEMENT_SET_NO": 999,
        "REV_AT_EPOCH": 5796,
        "BSTAR": 0.00014298025,
        "MEAN_MOTION_DOT": 3.067e-05,
        "MEAN_MOTION_DDOT": 0
    },
    {
        "OBJECT_NAME": "SL-16 R/B",
        "OBJECT_ID": "1988-039B",
        "EPOCH": "2026-04-17T02:24:45.584640",
        "MEAN_MOTION": 14.19622815,
        "ECCENTRICITY": 0.00240619,
        "INCLINATION": 71.0165,
        "RA_OF_ASC_NODE": 347.33,
        "ARG_OF_PERICENTER": 279.9261,
        "MEAN_ANOMALY": 79.9148,
        "EPHEMERIS_TYPE": 0,
        "CLASSIFICATION_TYPE": "U",
        "NORAD_CAT_ID": 19120,
        "ELEMENT_SET_NO": 999,
        "REV_AT_EPOCH": 96383,
        "BSTAR": -1.9130563e-05,
        "MEAN_MOTION_DOT": -8.9e-07,
        "MEAN_MOTION_DDOT": 0
    },
    {
        "OBJECT_NAME": "COSMOS 1953",
        "OBJECT_ID": "1988-050A",
        "EPOCH": "2026-04-17T02:39:58.962240",
        "MEAN_MOTION": 15.29103305,
        "ECCENTRICITY": 0.00104757,
        "INCLINATION": 82.5045,
        "RA_OF_ASC_NODE": 119.5797,
        "ARG_OF_PERICENTER": 359.4167,
        "MEAN_ANOMALY": 0.7059,
        "EPHEMERIS_TYPE": 0,
        "CLASSIFICATION_TYPE": "U",
        "NORAD_CAT_ID": 19210,
        "ELEMENT_SET_NO": 999,
        "REV_AT_EPOCH": 4365,
        "BSTAR": 0.00018950428,
        "MEAN_MOTION_DOT": 5.393e-05,
        "MEAN_MOTION_DDOT": 0
    },
    {
        "OBJECT_NAME": "SL-8 R/B",
        "OBJECT_ID": "1988-053B",
        "EPOCH": "2026-04-17T06:14:06.390816",
        "MEAN_MOTION": 14.3893866,
        "ECCENTRICITY": 0.00209319,
        "INCLINATION": 74.0488,
        "RA_OF_ASC_NODE": 41.366,
        "ARG_OF_PERICENTER": 214.8976,
        "MEAN_ANOMALY": 296.133,
        "EPHEMERIS_TYPE": 0,
        "CLASSIFICATION_TYPE": "U",
        "NORAD_CAT_ID": 19257,
        "ELEMENT_SET_NO": 999,
        "REV_AT_EPOCH": 98214,
        "BSTAR": 4.0511744e-05,
        "MEAN_MOTION_DOT": 9.9e-07,
        "MEAN_MOTION_DDOT": 0
    }
]